0 CZ-4 DEB
1 26441U 99057KN  13283.42914541  .00004866  00000-0  11419-2 0  4014
2 26441 098.1321 261.7018 0070821 291.3311 219.8620 14.53390377710082
0 CZ-4 DEB
1 26441U 99057KN  13286.17982687  .00004118  00000-0  96782-3 0  4034
2 26441 098.1318 264.3725 0070654 282.6522 212.2657 14.53410681710485
0 CZ-4 DEB
1 26441U 99057KN  13287.21000638  .00004401  00000-0  10334-2 0  4041
2 26441 098.1314 265.3726 0070651 279.3866 202.5507 14.53417203710634
0 CZ-4 DEB
1 26441U 99057KN  13288.51848727  .00006208  00000-0  14524-2 0  4057
2 26441 098.1316 266.6430 0070613 275.2321 209.0638 14.53432981710829
0 CZ-4 DEB
1 26441U 99057KN  13289.75743436  .00005984  00000-0  14003-2 0  4068
2 26441 098.1317 267.8458 0070582 271.3166 211.7922 14.53442574711008
0 CZ-4 DEB
1 26441U 99057KN  13291.20300155  .00004900  00000-0  11484-2 0  4076
2 26441 098.1322 269.2489 0070556 266.7443 215.7134 14.53456225711211
0 CZ-4 DEB
1 26441U 99057KN  13292.63660197  .00004699  00000-0  11014-2 0  4084
2 26441 098.1329 270.6404 0070605 262.2045 157.0913 14.53468788711428
0 CZ-4 DEB
1 26441U 99057KN  13294.16517152  .00005461  00000-0  12778-2 0  4093
2 26441 098.1334 272.1241 0070592 257.3741 235.4619 14.53481654711648
0 CZ-4 DEB
1 26441U 99057KN  13295.19706417  .00005758  00000-0  13463-2 0  4104
2 26441 098.1336 273.1260 0070627 254.1248 234.9582 14.53489309711792
0 CZ-4 DEB
1 26441U 99057KN  13296.21794049  .00005620  00000-0  13141-2 0  4118
2 26441 098.1340 274.1175 0070599 250.8895 176.8592 14.53500007711943
